STARLINK-2213           
1 47780U 21017BL  26068.65627556  .00020507  00000+0  70254-3 0  9995
2 47780  53.1589 203.9945 0001113  71.0225 289.0897 15.30203136277894
2023-104A               
1 57424U 23104A   26065.78279804  .00015492  00000+0  48200-3 0  9993
2 57424  97.2792 135.5625 0009333 122.1915 238.0234 15.33350758146346
